{
  "type": "FeatureCollection",
  "features": [
    {
      "type": "Feature",
      "properties": {
        "norad_id": 66383,
        "name": "STARLINK-35690",
        "group": "last-30-days",
        "lat": -42.50097847378319,
        "lon": 154.22599597864433,
        "alt_km": 452.6316535420474,
        "timestamp": "2025-12-07T03:52:31.202160+00:00",
        "meta_object_name": "STARLINK-35690",
        "meta_object_id": "2025-257D",
        "meta_epoch": "2025-12-06T14:00:01.999872",
        "meta_mean_motion": 15.39558062,
        "meta_eccentricity": 0.00013362,
        "meta_inclination": 53.1611,
        "meta_ra_of_asc_node": 293.5587,
        "meta_arg_of_pericenter": 79.1423,
        "meta_mean_anomaly": 192.4006,
        "meta_ephemeris_type": 0,
        "meta_classification_type": "U",
        "meta_norad_cat_id": 66383,
        "meta_element_set_no": 999,
        "meta_rev_at_epoch": 550,
        "meta_bstar": 0.00077538501,
        "meta_mean_motion_dot": 0.00030677,
        "meta_mean_motion_ddot": 0,
        "tle_line1": "1 66383U 25257D   25340.58335648  .00030677  00000+0  77539-3 0  9999",
        "tle_line2": "2 66383  53.1611 293.5587 0001336  79.1423 192.4006 15.39558062  5509"
      },
      "geometry": {
        "type": "Point",
        "coordinates": [
          154.22599597864433,
          -42.50097847378319
        ]
      }
    },
    {
      "type": "Feature",
      "properties": {
        "norad_id": 66384,
        "name": "STARLINK-35662",
        "group": "last-30-days",
        "lat": -43.53569391569903,
        "lon": 156.25449315006387,
        "alt_km": 452.78840431012486,
        "timestamp": "2025-12-07T03:52:31.202171+00:00",
        "meta_object_name": "STARLINK-35662",
        "meta_object_id": "2025-257E",
        "meta_epoch": "2025-12-06T14:00:01.999872",
        "meta_mean_motion": 15.39688753,
        "meta_eccentricity": 0.00011833,
        "meta_inclination": 53.1613,
        "meta_ra_of_asc_node": 293.5561,
        "meta_arg_of_pericenter": 86.1796,
        "meta_mean_anomaly": 187.1216,
        "meta_ephemeris_type": 0,
        "meta_classification_type": "U",
        "meta_norad_cat_id": 66384,
        "meta_element_set_no": 999,
        "meta_rev_at_epoch": 550,
        "meta_bstar": -0.0037537524,
        "meta_mean_motion_dot": -0.00148002,
        "meta_mean_motion_ddot": 0,
        "tle_line1": "1 66384U 25257E   25340.58335648 -.00148002  00000+0 -37538-2 0  9998",
        "tle_line2": "2 66384  53.1613 293.5561 0001183  86.1796 187.1216 15.39688753  5500"
      },
      "geometry": {
        "type": "Point",
        "coordinates": [
          156.25449315006387,
          -43.53569391569903
        ]
      }
    },
    {
      "type": "Feature",
      "properties": {
        "norad_id": 66385,
        "name": "STARLINK-35659",
        "group": "last-30-days",
        "lat": -26.550494394332127,
        "lon": 132.88171239065088,
        "alt_km": 451.1521293252399,
        "timestamp": "2025-12-07T03:52:31.202183+00:00",
        "meta_object_name": "STARLINK-35659",
        "meta_object_id": "2025-257F",
        "meta_epoch": "2025-12-06T06:41:52.581984",
        "meta_mean_motion": 15.39630174,
        "meta_eccentricity": 0.00013732,
        "meta_inclination": 53.1611,
        "meta_ra_of_asc_node": 295.0411,
        "meta_arg_of_pericenter": 72.9424,
        "meta_mean_anomaly": 287.1731,
        "meta_ephemeris_type": 0,
        "meta_classification_type": "U",
        "meta_norad_cat_id": 66385,
        "meta_element_set_no": 999,
        "meta_rev_at_epoch": 537,
        "meta_bstar": 0.0016658118,
        "meta_mean_motion_dot": 0.0006684,
        "meta_mean_motion_ddot": 0,
        "tle_line1": "1 66385U 25257F   25340.27908081  .00066840  00000+0  16658-2 0  9999",
        "tle_line2": "2 66385  53.1611 295.0411 0001373  72.9424 287.1731 15.39630174  5374"
      },
      "geometry": {
        "type": "Point",
        "coordinates": [
          132.88171239065088,
          -26.550494394332127
        ]
      }
    },
    {
      "type": "Feature",
      "properties": {
        "norad_id": 66386,
        "name": "STARLINK-35651",
        "group": "last-30-days",
        "lat": -52.621529624441706,
        "lon": -170.30760971644196,
        "alt_km": 453.12812203838166,
        "timestamp": "2025-12-07T03:52:31.202198+00:00",
        "meta_object_name": "STARLINK-35651",
        "meta_object_id": "2025-257G",
        "meta_epoch": "2025-12-06T14:00:01.999872",
        "meta_mean_motion": 15.39630338,
        "meta_eccentricity": 0.00012174,
        "meta_inclination": 53.1608,
        "meta_ra_of_asc_node": 293.5078,
        "meta_arg_of_pericenter": 86.3877,
        "meta_mean_anomaly": 210.8786,
        "meta_ephemeris_type": 0,
        "meta_classification_type": "U",
        "meta_norad_cat_id": 66386,
        "meta_element_set_no": 999,
        "meta_rev_at_epoch": 550,
        "meta_bstar": -0.0020409721,
        "meta_mean_motion_dot": -0.000812,
        "meta_mean_motion_ddot": 0,
        "tle_line1": "1 66386U 25257G   25340.58335648 -.00081200  00000+0 -20410-2 0  9997",
        "tle_line2": "2 66386  53.1608 293.5078 0001217  86.3877 210.8786 15.39630338  5501"
      },
      "geometry": {
        "type": "Point",
        "coordinates": [
          -170.30760971644196,
          -52.621529624441706
        ]
      }
    },
    {
      "type": "Feature",
      "properties": {
        "norad_id": 66387,
        "name": "STARLINK-35661",
        "group": "last-30-days",
        "lat": -52.8650142734744,
        "lon": -167.32322688257486,
        "alt_km": 453.4795425819866,
        "timestamp": "2025-12-07T03:52:31.202224+00:00",
        "meta_object_name": "STARLINK-35661",
        "meta_object_id": "2025-257H",
        "meta_epoch": "2025-12-06T14:00:01.999872",
        "meta_mean_motion": 15.39661844,
        "meta_eccentricity": 0.00016751,
        "meta_inclination": 53.1608,
        "meta_ra_of_asc_node": 293.5043,
        "meta_arg_of_pericenter": 88.3573,
        "meta_mean_anomaly": 210.7151,
        "meta_ephemeris_type": 0,
        "meta_classification_type": "U",
        "meta_norad_cat_id": 66387,
        "meta_element_set_no": 999,
        "meta_rev_at_epoch": 550,
        "meta_bstar": -0.0029477117,
        "meta_mean_motion_dot": -0.00116683,
        "meta_mean_motion_ddot": 0,
        "tle_line1": "1 66387U 25257H   25340.58335648 -.00116683  00000+0 -29477-2 0  9994",
        "tle_line2": "2 66387  53.1608 293.5043 0001675  88.3573 210.7151 15.39661844  5508"
      },
      "geometry": {
        "type": "Point",
        "coordinates": [
          -167.32322688257486,
          -52.8650142734744
        ]
      }
    },
    {
      "type": "Feature",
      "properties": {
        "norad_id": 66388,
        "name": "STARLINK-35647",
        "group": "last-30-days",
        "lat": -49.176929374073175,
        "lon": -129.4764113827482,
        "alt_km": 453.55936842114625,
        "timestamp": "2025-12-07T03:52:31.202238+00:00",
        "meta_object_name": "STARLINK-35647",
        "meta_object_id": "2025-257J",
        "meta_epoch": "2025-12-06T14:00:01.999872",
        "meta_mean_motion": 15.39727978,
        "meta_eccentricity": 0.00014833,
        "meta_inclination": 53.1603,
        "meta_ra_of_asc_node": 293.4566,
        "meta_arg_of_pericenter": 92.8954,
        "meta_mean_anomaly": 230.1093,
        "meta_ephemeris_type": 0,
        "meta_classification_type": "U",
        "meta_norad_cat_id": 66388,
        "meta_element_set_no": 999,
        "meta_rev_at_epoch": 550,
        "meta_bstar": -0.006780548,
        "meta_mean_motion_dot": -0.00263404,
        "meta_mean_motion_ddot": 0,
        "tle_line1": "1 66388U 25257J   25340.58335648 -.00263404  00000+0 -67805-2 0  9996",
        "tle_line2": "2 66388  53.1603 293.4566 0001483  92.8954 230.1093 15.39727978  5505"
      },
      "geometry": {
        "type": "Point",
        "coordinates": [
          -129.4764113827482,
          -49.176929374073175
        ]
      }
    },
    {
      "type": "Feature",
      "properties": {
        "norad_id": 66389,
        "name": "STARLINK-35694",
        "group": "last-30-days",
        "lat": -33.38289574380982,
        "lon": -98.92997366058238,
        "alt_km": 452.44682637928327,
        "timestamp": "2025-12-07T03:52:31.202250+00:00",
        "meta_object_name": "STARLINK-35694",
        "meta_object_id": "2025-257K",
        "meta_epoch": "2025-12-06T14:00:01.999872",
        "meta_mean_motion": 15.39552039,
        "meta_eccentricity": 0.0001756,
        "meta_inclination": 53.1596,
        "meta_ra_of_asc_node": 293.4007,
        "meta_arg_of_pericenter": 113.243,
        "meta_mean_anomaly": 237.3944,
        "meta_ephemeris_type": 0,
        "meta_classification_type": "U",
        "meta_norad_cat_id": 66389,
        "meta_element_set_no": 999,
        "meta_rev_at_epoch": 550,
        "meta_bstar": 0.0010425626,
        "meta_mean_motion_dot": 0.00041436,
        "meta_mean_motion_ddot": 0,
        "tle_line1": "1 66389U 25257K   25340.58335648  .00041436  00000+0  10426-2 0  9991",
        "tle_line2": "2 66389  53.1596 293.4007 0001756 113.2430 237.3944 15.39552039  5505"
      },
      "geometry": {
        "type": "Point",
        "coordinates": [
          -98.92997366058238,
          -33.38289574380982
        ]
      }
    }
  ]
}